OBJECT_NAME,OBJECT_ID,EPOCH,MEAN_MOTION,ECCENTRICITY,INCLINATION,RA_OF_ASC_NODE,ARG_OF_PERICENTER,MEAN_ANOMALY,EPHEMERIS_TYPE,CLASSIFICATION_TYPE,NORAD_CAT_ID,ELEMENT_SET_NO,REV_AT_EPOCH,BSTAR,MEAN_MOTION_DOT,MEAN_MOTION_DDOT
CUBEBUG-2 (LO-74),2013-066AA,2026-06-30T09:25:49.441440,14.93867811,.00569621,97.8910,130.4277,345.3652,14.5915,0,U,39440,999,67896,.4062188E-3,.4394E-4,0
FUNCUBE-1 (AO-73),2013-066AE,2026-06-30T10:42:46.740384,15.09646175,.00370868,97.8283,153.1705,155.7745,204.5238,0,U,39444,999,68166,.3873265E-3,.6265E-4,0
UWE-3,2013-066AG,2026-06-30T10:47:25.367424,14.97123484,.00470056,97.8711,137.6146,275.9070,83.6795,0,U,39446,999,67956,.23877853E-3,.2754E-4,0
UNISAT-6,2014-033C,2026-06-30T09:04:35.930496,14.88308436,.00454229,97.7890,333.8587,26.7398,333.6146,0,U,40012,999,64812,.28138022E-3,.2595E-4,0
DUCHIFAT-1,2014-033M,2026-06-30T02:55:44.735520,15.67349630,.00004958,98.0447,242.1254,107.7181,252.4132,0,U,40021,999,65777,.98876381E-3,.10757E-2,0
QB50P1,2014-033R,2026-06-30T06:21:04.432032,15.18453201,.00091928,98.0957,193.3288,170.0607,190.0809,0,U,40025,999,65501,.37202082E-3,.7596E-4,0
LILACSAT-2,2015-049K,2026-06-30T13:22:18.179904,15.51879240,.00068925,97.4626,218.9093,188.3589,171.7550,0,U,40908,999,59782,.26765214E-3,.15957E-3,0
FOX-1A (AO-85),2015-058D,2026-06-30T13:35:05.245152,14.91023562,.01312928,64.7741,237.4052,51.3883,309.8898,0,U,40967,999,11556,.18700881E-3,.2007E-4,0
CAS-2T & KS-1Q,2016-066G,2026-06-30T04:36:35.427744,14.44735570,.03428454,98.3819,256.7796,90.1573,273.8901,0,U,41847,999,50667,.22693892E-3,.1573E-4,0
RADFXSAT (FOX-1B),2017-073E,2026-06-30T13:39:22.965120,15.12893104,.01483276,97.4686,48.5107,282.5576,75.9100,0,U,43017,999,46741,.2934117E-3,.6695E-4,0
DIWATA-2B,2018-084H,2026-06-30T13:46:22.698048,15.00509099,.00131135,98.1200,18.3663,128.6702,231.5696,0,U,43678,999,41822,.16142167E-3,.1972E-4,0
ES'HAIL 2,2018-090A,2026-06-30T07:21:13.895712,1.00272145,.00022292,0.0187,24.8803,108.3216,281.2639,0,U,43700,999,2780,0,.155E-5,0
FOX-1CLIFF (AO-95),2018-099N,2026-06-30T02:52:08.745888,15.26976456,.00070264,97.4382,241.3196,305.2018,54.8563,0,U,43770,999,41519,.38875261E-3,.10231E-3,0
ITASAT,2018-099AE,2026-06-30T14:10:36.073056,15.19218577,.00109494,97.4020,232.8356,309.6889,50.3380,0,U,43786,999,41494,.30036376E-3,.6267E-4,0
JY1SAT (JO-97),2018-099AX,2026-06-30T03:26:25.095264,15.34057952,.0005404,97.4129,244.0253,207.7837,152.3117,0,U,43803,999,41561,.4634271E-3,.15212E-3,0
UWE-4,2018-111E,2026-06-30T06:50:51.751680,15.46924392,.00043159,97.5854,110.2868,269.5184,90.5570,0,U,43880,999,41280,.60219102E-3,.30312E-3,0
TIANYAN 01,2019-093C,2026-06-30T12:10:20.335584,14.86542547,.00147921,97.7536,253.4145,47.5532,312.6932,0,U,44881,999,35339,.14597661E-3,.1241E-4,0
RS-44 & BREEZE-KM R/B,2019-096E,2026-06-30T10:51:22.090464,12.79748923,.02185039,82.5224,330.8897,113.2889,249.1374,0,U,44909,999,30404,-.18766128E-4,.8E-7,0
SALSAT,2020-068K,2026-06-30T11:43:12.412704,15.29983096,.0007929,97.8843,185.3641,251.0233,109.0147,0,U,46495,999,31739,.26165469E-3,.7517E-4,0
XW-3 (CAS-9),2021-131B,2026-06-30T14:11:28.298400,14.41369306,.00052757,98.4993,273.9085,65.8946,294.2795,0,U,50466,999,23704,.16097368E-3,.477E-5,0
GREENCUBE (IO-117),2022-080E,2026-06-28T16:50:00.384576,6.42583249,.00089876,70.1440,294.2410,287.1341,72.8335,0,U,53109,999,9280,0,-.3E-7,0
UMKA 1 (RS40S),2023-091G,2026-06-30T13:57:20.416320,15.20969733,.00141462,97.5045,240.2277,76.2291,284.0518,0,U,57172,999,16604,.29509261E-3,.6485E-4,0
CUBESX-HSE 3 (RS42S),2023-091N,2026-06-30T13:39:35.241696,15.31545440,.00111952,97.5089,247.3275,52.4979,307.7278,0,U,57178,999,16647,.4154775E-3,.12608E-3,0
MONITOR-3 (RS58S),2023-091Q,2026-06-30T13:23:26.867040,15.28106339,.00124422,97.5080,245.1035,58.9364,301.3095,0,U,57180,999,16633,.38000047E-3,.10364E-3,0
MONITOR-4 (RS57S),2023-091S,2026-06-30T12:52:13.357344,15.28190696,.00124515,97.5074,245.0537,59.2574,300.9890,0,U,57182,999,16633,.39371122E-3,.1077E-3,0
MONITOR-2 (RS39S),2023-091U,2026-06-30T13:17:27.592512,15.19032693,.00125503,97.5067,239.7505,70.4729,289.7859,0,U,57184,999,16598,.23806214E-3,.4927E-4,0
SVYATOBOR 1 (RS60S),2023-091X,2026-06-30T13:27:49.270752,15.26837520,.00102038,97.5086,245.4531,53.6057,306.6121,0,U,57187,999,16635,.33471209E-3,.8766E-4,0
VIZARD-METEO (RS38S),2023-091Z,2026-06-30T13:34:44.976576,15.36443086,.00071438,97.5090,251.3219,34.9582,325.2130,0,U,57189,999,16674,.46748448E-3,.16566E-3,0
POLYTECH-UNIVERSE 3 (RS46S),2023-091AB,2026-06-30T13:54:02.987136,15.19239755,.00170059,97.5042,239.2801,84.5580,275.7594,0,U,57191,999,16598,.25944946E-3,.5418E-4,0
UTMN 2 (RS27S),2023-091AP,2026-06-30T10:46:23.220768,15.32367609,.00083169,97.5086,248.8556,42.7046,317.4840,0,U,57203,999,16657,.3767421E-3,.11711E-3,0
